ONEWEB-0414             
1 50491U 21132Y   25303.18874722  .00000038  00000+0  64132-4 0  9990
2 50491  87.9231  21.1110 0001619 105.1273 255.0039 13.18686609191310
ONEWEB-0417             
1 50492U 21132Z   25303.27287336 -.00000021  00000+0 -85742-4 0  9994
2 50492  87.9231  21.1280 0001739  94.3944 265.7387 13.18686437191308
ONEWEB-0418             
1 50493U 21132AA  25303.28263567 -.00000052  00000+0 -16494-3 0  9997
2 50493  87.9228  21.1113 0001618  86.0634 274.0683 13.18686455191368
ONEWEB-0419             
1 50494U 21132AB  25303.14915930  .00000064  00000+0  12901-3 0  9991
2 50494  87.9231  21.1379 0001927  92.6760 267.4592 13.18686122191268
ONEWEB-0420             
1 50495U 21132AC  25303.26627609  .00000095  00000+0  20703-3 0  9991
2 50495  87.9230  21.1256 0002042 110.0335 250.1017 13.18686308191272
ONEWEB-0421             
1 50496U 21132AD  25303.25967510  .00000005  00000+0 -18979-4 0  9994
2 50496  87.9227  21.1205 0001553 108.2021 251.9280 13.18685451191314
ONEWEB-0424             
1 50497U 21132AE  25303.22008936  .00000059  00000+0  11744-3 0  9990
2 50497  87.9233  21.1243 0002111  93.2055 266.9319 13.18686287191334
ONEWEB-0426             
1 50498U 21132AF  25303.25637461  .00000065  00000+0  13133-3 0  9996
2 50498  87.9227  21.1076 0001119  99.2038 260.9221 13.18687046191280
